NORAD_CAT_ID,OBJECT_NAME,OBJECT_TYPE,EPOCH,MEAN_MOTION,ECCENTRICITY,INCLINATION,RA_OF_ASC_NODE,ARG_OF_PERICENTER,MEAN_ANOMALY,BSTAR,MEAN_MOTION_DOT,MEAN_MOTION_DDOT,TLE_LINE0,TLE_LINE1,TLE_LINE2,SEMIMAJOR_AXIS,PERIOD,APOGEE,PERIGEE,DECAYED
53858.0,STARLINK-4798,PAYLOAD,2023-06-14 19:40:04,15.08835124,9.4e-05,53.2163,88.42,109.5826,250.5268,-5.0179e-05,-1.086e-05,0.0,0 STARLINK-4798,1 53858U 22114AS  23165.81949462 -.00001086  00000-0 -50179-4 0  9992,2 53858  53.2163  88.4200 0000940 109.5826 250.5268 15.08835124 42312,6917.895,95.438,540.411,539.11,0.0
53858.0,STARLINK-4798,PAYLOAD,2023-06-15 02:01:37,15.088313,9.65e-05,53.2168,87.2298,104.8438,255.2661,-5.0861e-05,-1.097e-05,0.0,0 STARLINK-4798,1 53858U 22114AS  23166.08445806 -.00001097  00000-0 -50861-4 0  9995,2 53858  53.2168  87.2298 0000965 104.8438 255.2661 15.08831300 41810,6917.907,95.438,540.44,539.104,0.0
53858.0,STARLINK-4798,PAYLOAD,2023-06-15 03:37:00,15.08834024,9.49e-05,53.2171,86.9312,97.2114,262.8986,-2.9712e-05,-7.6e-06,0.0,0 STARLINK-4798,1 53858U 22114AS  23166.15069615 -.00000760  00000-0 -29712-4 0  9990,2 53858  53.2171  86.9312 0000949  97.2114 262.8986 15.08834024 42366,6917.899,95.438,540.42,539.107,0.0
53858.0,STARLINK-4798,PAYLOAD,2023-06-15 17:55:28,15.08834789,9.74e-05,53.2179,84.2544,102.9382,257.1719,5.0095e-05,5.1e-06,0.0,0 STARLINK-4798,1 53858U 22114AS  23166.74685490  .00000510  00000-0  50095-4 0  9999,2 53858  53.2179  84.2544 0000974 102.9382 257.1719 15.08834789 41910,6917.896,95.438,540.435,539.088,0.0
53858.0,STARLINK-4798,PAYLOAD,2023-06-16 00:17:00,15.08844357,0.0001027,53.218,83.0662,93.4824,266.6285,5.4172e-05,5.75e-06,0.0,0 STARLINK-4798,1 53858U 22114AS  23167.01180954  .00000575  00000-0  54172-4 0  9996,2 53858  53.2180  83.0662 0001027  93.4824 266.6285 15.08844357 41954,6917.867,95.437,540.443,539.022,0.0
53858.0,STARLINK-4798,PAYLOAD,2023-06-16 11:24:41,15.08849578,0.0001248,53.217,80.9825,85.3637,274.7497,6.0694e-05,6.78e-06,0.0,0 STARLINK-4798,1 53858U 22114AS  23167.47548450  .00000678  00000-0  60694-4 0  9995,2 53858  53.2170  80.9825 0001248  85.3637 274.7497 15.08849578 42560,6917.851,95.437,540.579,538.853,0.0
53858.0,STARLINK-4798,PAYLOAD,2023-06-16 17:46:14,15.08842923,0.0001305,53.2172,79.794,83.204,276.9101,0.00013167,1.808e-05,0.0,0 STARLINK-4798,1 53858U 22114AS  23167.74044690  .00001808  00000-0  13167-3 0  9990,2 53858  53.2172  79.7940 0001305  83.2040 276.9101 15.08842923 42603,6917.871,95.437,540.639,538.834,0.0
53858.0,STARLINK-4798,PAYLOAD,2023-06-17 03:18:33,15.08847831,0.0001137,53.2173,78.0101,83.4164,276.6958,0.00015976,2.256e-05,0.0,0 STARLINK-4798,1 53858U 22114AS  23168.13788198  .00002256  00000-0  15976-3 0  9990,2 53858  53.2173  78.0101 0001137  83.4164 276.6958 15.08847831 42124,6917.856,95.437,540.508,538.935,0.0
53858.0,STARLINK-4798,PAYLOAD,2023-06-17 11:15:30,15.08826977,0.0001647,53.2172,76.5241,74.3458,285.7716,-4.7336e-05,-1.041e-05,0.0,0 STARLINK-4798,1 53858U 22114AS  23168.46910438 -.00001041  00000-0 -47336-4 0  9999,2 53858  53.2172  76.5241 0001647  74.3458 285.7716 15.08826977 42718,6917.92,95.438,540.925,538.646,0.0
53858.0,STARLINK-4798,PAYLOAD,2023-06-17 17:37:03,15.0883279,0.0001602,53.2168,75.3305,86.4159,273.7017,-0.0001406,-2.525e-05,0.0,0 STARLINK-4798,1 53858U 22114AS  23168.73406546 -.00002525  00000-0 -14060-3 0  9994,2 53858  53.2168  75.3305 0001602  86.4159 273.7017 15.08832790 42210,6917.902,95.438,540.876,538.659,0.0
53858.0,STARLINK-4798,PAYLOAD,2023-06-18 03:09:22,15.08825385,0.0001318,53.2163,73.5498,59.2737,300.8385,-0.00013863,-2.493e-05,0.0,0 STARLINK-4798,1 53858U 22114AS  23169.13151179 -.00002493  00000-0 -13863-3 0  9992,2 53858  53.2163  73.5498 0001318  59.2737 300.8385 15.08825385 42270,6917.925,95.438,540.702,538.878,0.0
53858.0,STARLINK-4798,PAYLOAD,2023-06-18 11:06:17,15.08837657,0.0001289,53.2173,72.0627,73.6067,286.5067,-5.2934e-05,-1.13e-05,0.0,0 STARLINK-4798,1 53858U 22114AS  23169.46270278 -.00001130  00000-0 -52934-4 0  9990,2 53858  53.2173  72.0627 0001289  73.6067 286.5067 15.08837657 42869,6917.888,95.438,540.644,538.861,0.0
53858.0,STARLINK-4798,PAYLOAD,2023-06-19 03:00:07,15.0885151,0.000101,53.2173,69.0876,80.1949,279.9157,9.809e-05,1.274e-05,0.0,0 STARLINK-4798,1 53858U 22114AS  23170.12508980  .00001274  00000-0  98090-4 0  9999,2 53858  53.2173  69.0876 0001010  80.1949 279.9157 15.08851510 42427,6917.845,95.437,540.409,539.012,0.0
53858.0,STARLINK-4798,PAYLOAD,2023-06-20 02:50:55,15.08844277,0.0001061,53.2177,64.6265,72.5482,287.5626,0.00025029,3.698e-05,0.0,0 STARLINK-4798,1 53858U 22114AS  23171.11869339  .00003698  00000-0  25029-3 0  9990,2 53858  53.2177  64.6265 0001061  72.5482 287.5626 15.08844277 42571,6917.867,95.437,540.466,538.998,0.0
53858.0,STARLINK-4798,PAYLOAD,2023-06-20 20:20:09,15.08847546,0.0001166,53.2172,61.3538,101.331,258.7813,5.4007e-05,5.72e-06,0.0,0 STARLINK-4798,1 53858U 22114AS  23171.84733430  .00000572  00000-0  54007-4 0  9999,2 53858  53.2172  61.3538 0001166 101.3310 258.7813 15.08847546 43223,6917.857,95.437,540.529,538.916,0.0
53858.0,STARLINK-4798,PAYLOAD,2023-06-21 02:41:41,15.08852405,9.98e-05,53.2174,60.167,78.1305,281.9799,6.3275e-05,7.2e-06,0.0,0 STARLINK-4798,1 53858U 22114AS  23172.11229041  .00000720  00000-0  63275-4 0  9990,2 53858  53.2174  60.1670 0000998  78.1305 281.9799 15.08852405 43261,6917.842,95.437,540.398,539.017,0.0
53858.0,STARLINK-4798,PAYLOAD,2023-06-21 20:10:57,15.088409,0.0001085,53.2173,56.8967,92.8404,267.2712,-3.7081e-05,-8.78e-06,0.0,0 STARLINK-4798,1 53858U 22114AS  23172.84094045 -.00000878  00000-0 -37081-4 0  9996,2 53858  53.2173  56.8967 0001085  92.8404 267.2712 15.08840900 43373,6917.878,95.437,540.493,538.992,0.0
53858.0,STARLINK-4798,PAYLOAD,2023-06-21 23:21:43,15.08841217,0.0001096,53.2176,56.3026,77.6933,282.4182,-3.8571e-05,-9.02e-06,0.0,0 STARLINK-4798,1 53858U 22114AS  23172.97342026 -.00000902  00000-0 -38571-4 0  9998,2 53858  53.2176  56.3026 0001096  77.6933 282.4182 15.08841217 42851,6917.877,95.437,540.5,538.983,0.0
53858.0,STARLINK-4798,PAYLOAD,2023-06-23 08:44:48,15.08846582,0.0001118,53.2166,50.0586,87.0441,273.0679,0.0001208,1.636e-05,0.0,0 STARLINK-4798,1 53858U 22114AS  23174.36445421  .00001636  00000-0  12080-3 0  9995,2 53858  53.2166  50.0586 0001118  87.0441 273.0679 15.08846582 43067,6917.86,95.437,540.499,538.952,0.0
53858.0,STARLINK-4798,PAYLOAD,2023-06-24 00:38:40,15.08839272,0.0001345,53.2173,47.0818,80.046,280.0684,9.0851e-05,1.158e-05,0.0,0 STARLINK-4798,1 53858U 22114AS  23175.02686158  .00001158  00000-0  90851-4 0  9995,2 53858  53.2173  47.0818 0001345  80.0460 280.0684 15.08839272 43168,6917.883,95.438,540.678,538.817,0.0
53858.0,STARLINK-4798,PAYLOAD,2023-06-25 08:26:23,15.08840551,0.0001297,53.2181,41.1327,85.0849,275.0291,3.4652e-05,2.64e-06,0.0,0 STARLINK-4798,1 53858U 22114AS  23176.35166162  .00000264  00000-0  34652-4 0  9994,2 53858  53.2181  41.1327 0001297  85.0849 275.0291 15.08840551 43361,6917.879,95.438,540.641,538.846,0.0
53858.0,STARLINK-4798,PAYLOAD,2023-06-26 21:00:15,15.08842106,0.0001255,53.2168,34.2949,92.0086,268.105,5.1423e-05,5.31e-06,0.0,0 STARLINK-4798,1 53858U 22114AS  23177.87518440  .00000531  00000-0  51423-4 0  9994,2 53858  53.2168  34.2949 0001255  92.0086 268.1050 15.08842106 43593,6917.874,95.437,540.607,538.871,0.0
53858.0,STARLINK-4798,PAYLOAD,2023-06-28 00:01:49,15.088465,0.0001217,53.2176,29.2418,86.5225,273.5907,0.00016646,2.363e-05,0.0,0 STARLINK-4798,1 53858U 22114AS  23179.00126333  .00002363  00000-0  16646-3 0  9999,2 53858  53.2176  29.2418 0001217  86.5225 273.5907 15.08846500 43760,6917.861,95.437,540.567,538.884,0.0
53858.0,STARLINK-4798,PAYLOAD,2023-06-28 17:31:04,15.08835958,0.0001151,53.2176,25.9707,96.2385,263.8738,3.1733e-05,2.17e-06,0.0,0 STARLINK-4798,1 53858U 22114AS  23179.72990925  .00000217  00000-0  31733-4 0  9995,2 53858  53.2176  25.9707 0001151  96.2385 263.8738 15.08835958 43877,6917.893,95.438,540.554,538.961,0.0
53858.0,STARLINK-4798,PAYLOAD,2023-06-28 23:52:36,15.08844044,0.0001204,53.2176,24.7819,91.9044,268.2086,0.00013385,1.843e-05,0.0,0 STARLINK-4798,1 53858U 22114AS  23179.99486558  .00001843  00000-0  13385-3 0  9994,2 53858  53.2176  24.7819 0001204  91.9044 268.2086 15.08844044 43917,6917.868,95.437,540.566,538.9,0.0
53858.0,STARLINK-4798,PAYLOAD,2023-06-29 18:57:14,15.08838906,0.0001204,53.2185,21.2149,97.2421,262.8708,4.4296e-05,4.17e-06,0.0,0 STARLINK-4798,1 53858U 22114AS  23180.78975120  .00000417  00000-0  44296-4 0  9993,2 53858  53.2185  21.2149 0001204  97.2421 262.8708 15.08838906 44038,6917.884,95.438,540.582,538.916,0.0
53858.0,STARLINK-4798,PAYLOAD,2023-06-30 21:58:47,15.08844555,0.000117,53.2183,16.1596,98.0573,262.0552,9.1495e-05,1.169e-05,0.0,0 STARLINK-4798,1 53858U 22114AS  23181.91582732  .00001169  00000-0  91495-4 0  9990,2 53858  53.2183  16.1596 0001170  98.0573 262.0552 15.08844555 44209,6917.866,95.437,540.541,538.922,0.0
53858.0,STARLINK-4798,PAYLOAD,2023-07-01 18:38:48,15.08839268,0.0001168,53.2182,12.2931,96.9017,263.2108,4.7809e-05,4.73e-06,0.0,0 STARLINK-4798,1 53858U 22114AS  23182.77695292  .00000473  00000-0  47809-4 0  9998,2 53858  53.2182  12.2931 0001168  96.9017 263.2108 15.08839268 44334,6917.883,95.438,540.556,538.94,0.0
53858.0,STARLINK-4798,PAYLOAD,2023-07-02 01:00:20,15.08844986,0.0001101,53.2179,11.1029,95.2226,264.8892,0.00010207,1.337e-05,0.0,0 STARLINK-4798,1 53858U 22114AS  23183.04190772  .00001337  00000-0  10207-3 0  9993,2 53858  53.2179  11.1029 0001101  95.2226 264.8892 15.08844986 44371,6917.865,95.437,540.492,538.968,0.0
53858.0,STARLINK-4798,PAYLOAD,2023-07-02 12:08:03,15.08838164,0.0001228,53.2186,9.0238,104.1747,255.9382,8.1974e-05,1.017e-05,0.0,0 STARLINK-4798,1 53858U 22114AS  23183.50559349  .00001017  00000-0  81974-4 0  9998,2 53858  53.2186   9.0238 0001228 104.1747 255.9382 15.08838164 44449,6917.886,95.438,540.601,538.901,0.0
